IRIDIUM 155             
1 43573U 18061E   24198.91424165 -.00000010  00000+0 -10466-4 0  9997
2 43573  86.3986 349.3309 0002297  91.0525 269.0934 14.34217689312988
IRIDIUM 154             
1 43574U 18061F   24198.89521303  .00000074  00000+0  19502-4 0  9995
2 43574  86.3993 349.4377 0001950  96.2616 263.8802 14.34218052313034
IRIDIUM 163             
1 43575U 18061G   24198.38780478  .00000409  00000+0  13890-3 0  9995
2 43575  86.3989 349.5871 0002134  94.0158 266.1282 14.34219600312938
IRIDIUM 156             
1 43576U 18061H   24198.92058414  .00000065  00000+0  16053-4 0  9997
2 43576  86.3990 349.3709 0002226  88.7996 271.3455 14.34217850313005
IRIDIUM 164             
1 43577U 18061J   24198.90155544  .00000065  00000+0  16219-4 0  9992
2 43577  86.3992 349.4082 0001907  87.6009 272.5405 14.34218092313042
IRIDIUM 159             
1 43578U 18061K   24198.93961088  .00000009  00000+0 -38588-5 0  9997
2 43578  86.3987 349.3439 0001798  95.4556 264.6844 14.34217582313013
IRIDIUM 180             
1 43922U 19002A   24198.79956955  .00000452  00000+0  15426-3 0  9992
2 43922  86.3964 286.2816 0002182  98.5604 261.5839 14.34219264288600
IRIDIUM 176             
1 43923U 19002B   24198.27600027  .00001767  00000+0  27624-3 0  9995
2 43923  86.6093 286.5202 0002159  95.1854 264.9610 14.72269839296128
IRIDIUM 168             
1 43924U 19002C   24198.79322834 -.00000058  00000+0 -27678-4 0  9994
2 43924  86.3967 286.3420 0002021  93.7042 266.4385 14.34217510288581
IRIDIUM 173             
1 43925U 19002D   24198.71077447  .00000063  00000+0  15454-4 0  9997
2 43925  86.3964 286.2940 0002112  95.0090 265.1347 14.34217951288554
IRIDIUM 169             
1 43926U 19002E   24198.82566049  .00000213  00000+0  63248-4 0  9992
2 43926  86.4244 317.8744 0003923 115.3368 244.8237 14.38608474289534
IRIDIUM 172             
1 43927U 19002F   24198.77418664  .00000320  00000+0  10718-3 0  9998
2 43927  86.3963 286.2732 0002222  91.7415 268.4035 14.34214484288570
IRIDIUM 175             
1 43928U 19002G   24198.67817477  .00001534  00000+0  23920-3 0  9990
2 43928  86.1492 257.8255 0002380 100.8908 259.2576 14.72259949296174
IRIDIUM 171             
1 43929U 19002H   24198.68540408  .00000091  00000+0  25580-4 0  9991
2 43929  86.3974 286.5394 0002197  88.9792 271.1656 14.34218178288550
IRIDIUM 170             
1 43930U 19002J   24198.68999531  .00001806  00000+0  28237-3 0  9994
2 43930  86.6093 286.3522 0002345  94.8807 265.2678 14.72269097296191
IRIDIUM 167             
1 43931U 19002K   24198.67906185  .00000126  00000+0  38107-4 0  9999
2 43931  86.3965 286.3293 0002278  92.8292 267.3164 14.34218125288551
IRIDIUM 181             
1 56726U 23068S   24198.77458027  .00000621  00000+0  17770-3 0  9992
2 56726  86.8656 341.4594 0002426  89.3750 270.7729 14.43584950 61401
IRIDIUM 177             
1 56727U 23068T   24198.83472122  .00002695  00000+0  35118-3 0  9991
2 56727  86.1987 301.2840 0002221  88.5722 271.5753 14.80228029 62762
IRIDIUM 174             
1 56728U 23068U   24198.69407392  .00002585  00000+0  33671-3 0  9993
2 56728  86.1993 301.4569 0002086  86.1144 274.0316 14.80228219 62743
IRIDIUM 178             
1 56729U 23068V   24198.89148292  .00000549  00000+0  68777-4 0  9991
2 56729  86.5800 320.2364 0002452 102.1660 257.9836 14.80246234 62773
IRIDIUM 179             
1 56730U 23068W   24198.88606911  .00002796  00000+0  36430-3 0  9995
2 56730  86.6809 324.7471 0002526  97.8207 262.3302 14.80256365 62776
